{
    "links": {
        "self": "http://www.neowsapp.com/rest/v1/neo/3674503?api_key=iIulBulltgU6a56xZRHN4H3l9WmuAYTsLGpBGhQ2"
    },
    "id": "3674503",
    "neo_reference_id": "3674503",
    "name": "(2014 MR60)",
    "designation": "2014 MR60",
    "nasa_jpl_url": "http://ssd.jpl.nasa.gov/sbdb.cgi?sstr=3674503",
    "absolute_magnitude_h": 24.0,
    "estimated_diameter": {
        "kilometers": {
            "estimated_diameter_min": 0.0421264611,
            "estimated_diameter_max": 0.0941976306
        },
        "meters": {
            "estimated_diameter_min": 42.1264610556,
            "estimated_diameter_max": 94.1976305719
        },
        "miles": {
            "estimated_diameter_min": 0.0261761612,
            "estimated_diameter_max": 0.0585316759
        },
        "feet": {
            "estimated_diameter_min": 138.2101784897,
            "estimated_diameter_max": 309.0473542854
        }
    },
    "is_potentially_hazardous_asteroid": false,
    "close_approach_data": [
        {
            "close_approach_date": "2008-03-03",
            "close_approach_date_full": "2008-Mar-03 06:19",
            "epoch_date_close_approach": 1204525140000,
            "relative_velocity": {
                "kilometers_per_second": "18.8669306859",
                "kilometers_per_hour": "67920.9504692414",
                "miles_per_hour": "42203.4372512906"
            },
            "miss_distance": {
                "astronomical": "0.3110845527",
                "lunar": "121.0118910003",
                "kilometers": "46537586.473822749",
                "miles": "28917115.3303779762"
            },
            "orbiting_body": "Earth"
        },
        {
            "close_approach_date": "2011-04-04",
            "close_approach_date_full": "2011-Apr-04 16:05",
            "epoch_date_close_approach": 1301933100000,
            "relative_velocity": {
                "kilometers_per_second": "10.8014316544",
                "kilometers_per_hour": "38885.1539559836",
                "miles_per_hour": "24161.7224678166"
            },
            "miss_distance": {
                "astronomical": "0.1880382998",
                "lunar": "73.1468986222",
                "kilometers": "28130129.128501426",
                "miles": "17479251.7167786388"
            },
            "orbiting_body": "Earth"
        },
        {
            "close_approach_date": "2014-06-16",
            "close_approach_date_full": "2014-Jun-16 17:31",
            "epoch_date_close_approach": 1402939860000,
            "relative_velocity": {
                "kilometers_per_second": "11.8961124648",
                "kilometers_per_hour": "42826.0048734172",
                "miles_per_hour": "26610.4139725963"
            },
            "miss_distance": {
                "astronomical": "0.0394026089",
                "lunar": "15.3276148621",
                "kilometers": "5894546.363883043",
                "miles": "3662701.2688022734"
            },
            "orbiting_body": "Earth"
        },
        {
            "close_approach_date": "2017-07-10",
            "close_approach_date_full": "2017-Jul-10 18:52",
            "epoch_date_close_approach": 1499712720000,
            "relative_velocity": {
                "kilometers_per_second": "19.3180741684",
                "kilometers_per_hour": "69545.067006388",
                "miles_per_hour": "43212.6001073859"
            },
            "miss_distance": {
                "astronomical": "0.2435783301",
                "lunar": "94.7519704089",
                "kilometers": "36438799.361116887",
                "miles": "22642019.9985795606"
            },
            "orbiting_body": "Earth"
        },
        {
            "close_approach_date": "2081-07-16",
            "close_approach_date_full": "2081-Jul-16 06:57",
            "epoch_date_close_approach": 3519874620000,
            "relative_velocity": {
                "kilometers_per_second": "21.6415721673",
                "kilometers_per_hour": "77909.6598021335",
                "miles_per_hour": "48410.0327809423"
            },
            "miss_distance": {
                "astronomical": "0.3216496989",
                "lunar": "125.1217328721",
                "kilometers": "48118109.841581343",
                "miles": "29899207.0109068134"
            },
            "orbiting_body": "Earth"
        }
    ],
    "orbital_data": {
        "orbit_id": "5",
        "orbit_determination_date": "2017-04-06 08:39:47",
        "first_observation_date": "2014-06-29",
        "last_observation_date": "2014-07-25",
        "data_arc_in_days": 26,
        "observations_used": 11,
        "orbit_uncertainty": "6",
        "minimum_orbit_intersection": ".01326",
        "jupiter_tisserand_invariant": "3.506",
        "epoch_osculation": "2459000.5",
        "eccentricity": ".5639884444899466",
        "semi_major_axis": "2.102269346384702",
        "inclination": "10.98173691929324",
        "ascending_node_longitude": "93.17833599126494",
        "orbital_period": "1113.348077668286",
        "perihelion_distance": ".9166137278182974",
        "perihelion_argument": "132.0025794786943",
        "aphelion_distance": "3.287924964951107",
        "perihelion_time": "2459019.829812906501",
        "mean_anomaly": "353.7497241106175",
        "mean_motion": ".3233490111681492",
        "equinox": "J2000",
        "orbit_class": {
            "orbit_class_type": "APO",
            "orbit_class_description": "Near-Earth asteroid orbits which cross the Earth’s orbit similar to that of 1862 Apollo",
            "orbit_class_range": "a (semi-major axis) > 1.0 AU; q (perihelion) < 1.017 AU"
        }
    },
    "is_sentry_object": false
}